SL-14 R/B               
1 16792U 86046B   26095.34500083  .00000724  00000+0  80381-4 0  9990
2 16792  82.4818  54.9912 0024136 137.0619 223.2487 14.85619419130360
SL-14 R/B               
1 16882U 86055B   26095.49297207  .00000631  00000+0  69853-4 0  9995
2 16882  82.5169 101.4730 0017482 241.2152 279.8568 14.85669061123347
AJISAI (EGS)            
1 16908U 86061A   26095.61760137 -.00000082  00000+0  10648-3 0  9990
2 16908  50.0122  10.5449 0011371 356.2866  69.8377 12.44515687471351
SL-14 R/B               
1 17567U 87024B   26095.43601986  .00000694  00000+0  76172-4 0  9991
2 17567  82.5266  67.6183 0018498 167.3325 192.8360 14.86160703 92102
COSMOS 1833             
1 17589U 87027A   26095.47727609 -.00000318  00000+0 -14411-3 0  9995
2 17589  70.9163 269.7125 0022928 174.4136 185.7245 14.13043639 14101
SL-16 R/B               
1 17590U 87027B   26095.58495655  .00000236  00000+0  14097-3 0  9999
2 17590  71.0028 219.8161 0002859  74.1801 285.9638 14.17169165 19153
SL-14 R/B               
1 17912U 87038B   26095.57943362  .00000689  00000+0  76902-4 0  9997
2 17912  82.4979 271.4680 0020713  76.8884 283.4642 14.85396917 83220
COSMOS 1844             
1 17973U 87041A   26095.41315718  .00000298  00000+0  17956-3 0  9998
2 17973  70.9015 337.8114 0031596 338.6212  21.3588 14.14562787  7365
SL-14 R/B               
1 18153U 87055B   26095.61889823  .00000562  00000+0  61978-4 0  9997
2 18153  82.4993 323.6531 0019143 285.9338  73.9768 14.85657229 73935
COSMOS 1867             
1 18187U 87060A   26095.61737344 -.00000005  00000+0  35596-4 0  9990
2 18187  65.0102 231.2907 0014981 280.1554  79.7841 14.31507615 23793
SL-14 R/B               
1 18749U 88001B   26095.48141941  .00000646  00000+0  71734-4 0  9991
2 18749  82.5156 170.1698 0018950 145.9756 214.2680 14.85558679 46001
COSMOS 1933             
1 18958U 88020A   26095.61679484  .00005687  00000+0  27613-3 0  9993
2 18958  82.5147 224.2642 0005380 104.9683 255.2147 15.18266724 54310
