CCSDS_OMM_VERS = 2.0
CREATION_DATE  = 
ORIGINATOR     = 

OBJECT_NAME    = SL-14 R/B
OBJECT_ID      = 1986-046B
CENTER_NAME    = EARTH
REF_FRAME      = TEME
TIME_SYSTEM    = UTC
MEAN_ELEMENT_THEORY = SGP/SGP4

EPOCH          = 2026-04-05T08:16:48.071712
MEAN_MOTION    = 14.85619419
ECCENTRICITY   = .00241363
INCLINATION    = 82.4818
RA_OF_ASC_NODE = 54.9912
ARG_OF_PERICENTER = 137.0619
MEAN_ANOMALY   = 223.2487

EPHEMERIS_TYPE = 0
CLASSIFICATION_TYPE = U
NORAD_CAT_ID   = 16792
ELEMENT_SET_NO = 999
REV_AT_EPOCH   = 13036
BSTAR          = .80380716E-4
MEAN_MOTION_DOT = .724E-5
MEAN_MOTION_DDOT = 0

CCSDS_OMM_VERS = 2.0
CREATION_DATE  = 
ORIGINATOR     = 

OBJECT_NAME    = SL-14 R/B
OBJECT_ID      = 1986-055B
CENTER_NAME    = EARTH
REF_FRAME      = TEME
TIME_SYSTEM    = UTC
MEAN_ELEMENT_THEORY = SGP/SGP4

EPOCH          = 2026-04-05T11:49:52.786848
MEAN_MOTION    = 14.85669061
ECCENTRICITY   = .00174828
INCLINATION    = 82.5169
RA_OF_ASC_NODE = 101.4730
ARG_OF_PERICENTER = 241.2152
MEAN_ANOMALY   = 279.8568

EPHEMERIS_TYPE = 0
CLASSIFICATION_TYPE = U
NORAD_CAT_ID   = 16882
ELEMENT_SET_NO = 999
REV_AT_EPOCH   = 12334
BSTAR          = .69853215E-4
MEAN_MOTION_DOT = .631E-5
MEAN_MOTION_DDOT = 0

CCSDS_OMM_VERS = 2.0
CREATION_DATE  = 
ORIGINATOR     = 

OBJECT_NAME    = AJISAI (EGS)
OBJECT_ID      = 1986-061A
CENTER_NAME    = EARTH
REF_FRAME      = TEME
TIME_SYSTEM    = UTC
MEAN_ELEMENT_THEORY = SGP/SGP4

EPOCH          = 2026-04-05T14:49:20.758368
MEAN_MOTION    = 12.44515687
ECCENTRICITY   = .00113719
INCLINATION    = 50.0122
RA_OF_ASC_NODE = 10.5449
ARG_OF_PERICENTER = 356.2866
MEAN_ANOMALY   = 69.8377

EPHEMERIS_TYPE = 0
CLASSIFICATION_TYPE = U
NORAD_CAT_ID   = 16908
ELEMENT_SET_NO = 999
REV_AT_EPOCH   = 47135
BSTAR          = .10647551E-3
MEAN_MOTION_DOT = -.82E-6
MEAN_MOTION_DDOT = 0

CCSDS_OMM_VERS = 2.0
CREATION_DATE  = 
ORIGINATOR     = 

OBJECT_NAME    = SL-14 R/B
OBJECT_ID      = 1987-024B
CENTER_NAME    = EARTH
REF_FRAME      = TEME
TIME_SYSTEM    = UTC
MEAN_ELEMENT_THEORY = SGP/SGP4

EPOCH          = 2026-04-05T10:27:52.115904
MEAN_MOTION    = 14.86160703
ECCENTRICITY   = .0018498
INCLINATION    = 82.5266
RA_OF_ASC_NODE = 67.6183
ARG_OF_PERICENTER = 167.3325
MEAN_ANOMALY   = 192.8360

EPHEMERIS_TYPE = 0
CLASSIFICATION_TYPE = U
NORAD_CAT_ID   = 17567
ELEMENT_SET_NO = 999
REV_AT_EPOCH   = 9210
BSTAR          = .76172E-4
MEAN_MOTION_DOT = .694E-5
MEAN_MOTION_DDOT = 0

CCSDS_OMM_VERS = 2.0
CREATION_DATE  = 
ORIGINATOR     = 

OBJECT_NAME    = COSMOS 1833
OBJECT_ID      = 1987-027A
CENTER_NAME    = EARTH
REF_FRAME      = TEME
TIME_SYSTEM    = UTC
MEAN_ELEMENT_THEORY = SGP/SGP4

EPOCH          = 2026-04-05T11:27:16.654176
MEAN_MOTION    = 14.13043639
ECCENTRICITY   = .00229282
INCLINATION    = 70.9163
RA_OF_ASC_NODE = 269.7125
ARG_OF_PERICENTER = 174.4136
MEAN_ANOMALY   = 185.7245

EPHEMERIS_TYPE = 0
CLASSIFICATION_TYPE = U
NORAD_CAT_ID   = 17589
ELEMENT_SET_NO = 999
REV_AT_EPOCH   = 1410
BSTAR          = -.1441085E-3
MEAN_MOTION_DOT = -.318E-5
MEAN_MOTION_DDOT = 0

CCSDS_OMM_VERS = 2.0
CREATION_DATE  = 
ORIGINATOR     = 

OBJECT_NAME    = SL-16 R/B
OBJECT_ID      = 1987-027B
CENTER_NAME    = EARTH
REF_FRAME      = TEME
TIME_SYSTEM    = UTC
MEAN_ELEMENT_THEORY = SGP/SGP4

EPOCH          = 2026-04-05T14:02:20.245920
MEAN_MOTION    = 14.17169165
ECCENTRICITY   = .00028595
INCLINATION    = 71.0028
RA_OF_ASC_NODE = 219.8161
ARG_OF_PERICENTER = 74.1801
MEAN_ANOMALY   = 285.9638

EPHEMERIS_TYPE = 0
CLASSIFICATION_TYPE = U
NORAD_CAT_ID   = 17590
ELEMENT_SET_NO = 999
REV_AT_EPOCH   = 1915
BSTAR          = .14097079E-3
MEAN_MOTION_DOT = .236E-5
MEAN_MOTION_DDOT = 0

CCSDS_OMM_VERS = 2.0
CREATION_DATE  = 
ORIGINATOR     = 

OBJECT_NAME    = SL-14 R/B
OBJECT_ID      = 1987-038B
CENTER_NAME    = EARTH
REF_FRAME      = TEME
TIME_SYSTEM    = UTC
MEAN_ELEMENT_THEORY = SGP/SGP4

EPOCH          = 2026-04-05T13:54:23.064768
MEAN_MOTION    = 14.85396917
ECCENTRICITY   = .00207138
INCLINATION    = 82.4979
RA_OF_ASC_NODE = 271.4680
ARG_OF_PERICENTER = 76.8884
MEAN_ANOMALY   = 283.4642

EPHEMERIS_TYPE = 0
CLASSIFICATION_TYPE = U
NORAD_CAT_ID   = 17912
ELEMENT_SET_NO = 999
REV_AT_EPOCH   = 8322
BSTAR          = .76902175E-4
MEAN_MOTION_DOT = .689E-5
MEAN_MOTION_DDOT = 0

CCSDS_OMM_VERS = 2.0
CREATION_DATE  = 
ORIGINATOR     = 

OBJECT_NAME    = COSMOS 1844
OBJECT_ID      = 1987-041A
CENTER_NAME    = EARTH
REF_FRAME      = TEME
TIME_SYSTEM    = UTC
MEAN_ELEMENT_THEORY = SGP/SGP4

EPOCH          = 2026-04-05T09:54:56.780352
MEAN_MOTION    = 14.14562787
ECCENTRICITY   = .00315966
INCLINATION    = 70.9015
RA_OF_ASC_NODE = 337.8114
ARG_OF_PERICENTER = 338.6212
MEAN_ANOMALY   = 21.3588

EPHEMERIS_TYPE = 0
CLASSIFICATION_TYPE = U
NORAD_CAT_ID   = 17973
ELEMENT_SET_NO = 999
REV_AT_EPOCH   = 736
BSTAR          = .17955818E-3
MEAN_MOTION_DOT = .298E-5
MEAN_MOTION_DDOT = 0

CCSDS_OMM_VERS = 2.0
CREATION_DATE  = 
ORIGINATOR     = 

OBJECT_NAME    = SL-14 R/B
OBJECT_ID      = 1987-055B
CENTER_NAME    = EARTH
REF_FRAME      = TEME
TIME_SYSTEM    = UTC
MEAN_ELEMENT_THEORY = SGP/SGP4

EPOCH          = 2026-04-05T14:51:12.807072
MEAN_MOTION    = 14.85657229
ECCENTRICITY   = .00191439
INCLINATION    = 82.4993
RA_OF_ASC_NODE = 323.6531
ARG_OF_PERICENTER = 285.9338
MEAN_ANOMALY   = 73.9768

EPHEMERIS_TYPE = 0
CLASSIFICATION_TYPE = U
NORAD_CAT_ID   = 18153
ELEMENT_SET_NO = 999
REV_AT_EPOCH   = 7393
BSTAR          = .61977678E-4
MEAN_MOTION_DOT = .562E-5
MEAN_MOTION_DDOT = 0

CCSDS_OMM_VERS = 2.0
CREATION_DATE  = 
ORIGINATOR     = 

OBJECT_NAME    = COSMOS 1867
OBJECT_ID      = 1987-060A
CENTER_NAME    = EARTH
REF_FRAME      = TEME
TIME_SYSTEM    = UTC
MEAN_ELEMENT_THEORY = SGP/SGP4

EPOCH          = 2026-04-05T14:49:01.065216
MEAN_MOTION    = 14.31507615
ECCENTRICITY   = .00149813
INCLINATION    = 65.0102
RA_OF_ASC_NODE = 231.2907
ARG_OF_PERICENTER = 280.1554
MEAN_ANOMALY   = 79.7841

EPHEMERIS_TYPE = 0
CLASSIFICATION_TYPE = U
NORAD_CAT_ID   = 18187
ELEMENT_SET_NO = 999
REV_AT_EPOCH   = 2379
BSTAR          = .35595809E-4
MEAN_MOTION_DOT = -.5E-7
MEAN_MOTION_DDOT = 0

CCSDS_OMM_VERS = 2.0
CREATION_DATE  = 
ORIGINATOR     = 

OBJECT_NAME    = SL-14 R/B
OBJECT_ID      = 1988-001B
CENTER_NAME    = EARTH
REF_FRAME      = TEME
TIME_SYSTEM    = UTC
MEAN_ELEMENT_THEORY = SGP/SGP4

EPOCH          = 2026-04-05T11:33:14.637024
MEAN_MOTION    = 14.85558679
ECCENTRICITY   = .00189509
INCLINATION    = 82.5156
RA_OF_ASC_NODE = 170.1698
ARG_OF_PERICENTER = 145.9756
MEAN_ANOMALY   = 214.2680

EPHEMERIS_TYPE = 0
CLASSIFICATION_TYPE = U
NORAD_CAT_ID   = 18749
ELEMENT_SET_NO = 999
REV_AT_EPOCH   = 4600
BSTAR          = .7173397E-4
MEAN_MOTION_DOT = .646E-5
MEAN_MOTION_DDOT = 0

CCSDS_OMM_VERS = 2.0
CREATION_DATE  = 
ORIGINATOR     = 

OBJECT_NAME    = COSMOS 1933
OBJECT_ID      = 1988-020A
CENTER_NAME    = EARTH
REF_FRAME      = TEME
TIME_SYSTEM    = UTC
MEAN_ELEMENT_THEORY = SGP/SGP4

EPOCH          = 2026-04-05T14:48:11.074176
MEAN_MOTION    = 15.18266724
ECCENTRICITY   = .00053802
INCLINATION    = 82.5147
RA_OF_ASC_NODE = 224.2642
ARG_OF_PERICENTER = 104.9683
MEAN_ANOMALY   = 255.2147

EPHEMERIS_TYPE = 0
CLASSIFICATION_TYPE = U
NORAD_CAT_ID   = 18958
ELEMENT_SET_NO = 999
REV_AT_EPOCH   = 5431
BSTAR          = .2761251E-3
MEAN_MOTION_DOT = .5687E-4
MEAN_MOTION_DDOT = 0

